{"Unnamed: 0": "\u00ef\u00bb\u00bfyear", "year": "zipcode", "zipcode": "ZRI", "ZRI": "lat", "lat": "lon", "lon": null}
{"Unnamed: 0": "2018", "year": "10002", "zipcode": "4266", "ZRI": "40.715776", "lat": "-73.986211", "lon": null}
{"Unnamed: 0": "2018", "year": "10003", "zipcode": "4367", "ZRI": "40.731829", "lat": "-73.989181", "lon": null}
{"Unnamed: 0": "2018", "year": "10004", "zipcode": "4344", "ZRI": "40.688874", "lat": "-74.018213", "lon": null}
{"Unnamed: 0": "2018", "year": "10005", "zipcode": "4204", "ZRI": "40.706004", "lat": "-74.008785", "lon": null}
{"Unnamed: 0": "2018", "year": "10006", "zipcode": "3719", "ZRI": "40.709627", "lat": "-74.012972", "lon": null}
{"Unnamed: 0": "2018", "year": "10007", "zipcode": "4838", "ZRI": "40.713858", "lat": "-74.007777", "lon": null}
{"Unnamed: 0": "2018", "year": "10009", "zipcode": "4080", "ZRI": "40.726399", "lat": "-73.978633", "lon": null}
{"Unnamed: 0": "2018", "year": "10010", "zipcode": "3751", "ZRI": "40.739104", "lat": "-73.982455", "lon": null}
{"Unnamed: 0": "2018", "year": "10011", "zipcode": "4678", "ZRI": "40.742043", "lat": "-74.00062", "lon": null}
{"Unnamed: 0": "2018", "year": "10012", "zipcode": "4860", "ZRI": "40.725581", "lat": "-73.998078", "lon": null}
{"Unnamed: 0": "2018", "year": "10013", "zipcode": "5742", "ZRI": "40.720103", "lat": "-74.004901", "lon": null}
{"Unnamed: 0": "2018", "year": "10014", "zipcode": "5061", "ZRI": "40.734012", "lat": "-74.006746", "lon": null}
{"Unnamed: 0": "2018", "year": "10016", "zipcode": "3950", "ZRI": "40.745221", "lat": "-73.978294", "lon": null}
{"Unnamed: 0": "2018", "year": "10017", "zipcode": "3550", "ZRI": "40.752359", "lat": "-73.972489", "lon": null}
{"Unnamed: 0": "2018", "year": "10018", "zipcode": "3956", "ZRI": "40.755332", "lat": "-73.993139", "lon": null}
{"Unnamed: 0": "2018", "year": "10019", "zipcode": "3895", "ZRI": "40.765829", "lat": "-73.987341", "lon": null}
{"Unnamed: 0": "2018", "year": "10021", "zipcode": "4186", "ZRI": "40.769225", "lat": "-73.958741", "lon": null}
{"Unnamed: 0": "2018", "year": "10022", "zipcode": "4129", "ZRI": "40.75863", "lat": "-73.967949", "lon": null}
{"Unnamed: 0": "2018", "year": "10023", "zipcode": "3858", "ZRI": "40.775915", "lat": "-73.982602", "lon": null}
{"Unnamed: 0": "2018", "year": "10024", "zipcode": "4434", "ZRI": "40.798452", "lat": "-73.974414", "lon": null}
{"Unnamed: 0": "2018", "year": "10025", "zipcode": "3660", "ZRI": "40.798601", "lat": "-73.966622", "lon": null}
{"Unnamed: 0": "2018", "year": "10026", "zipcode": "3574", "ZRI": "40.802381", "lat": "-73.952681", "lon": null}
{"Unnamed: 0": "2018", "year": "10027", "zipcode": "3364", "ZRI": "40.811407", "lat": "-73.95306", "lon": null}
{"Unnamed: 0": "2018", "year": "10028", "zipcode": "3504", "ZRI": "40.776442", "lat": "-73.953513", "lon": null}
{"Unnamed: 0": "2018", "year": "10029", "zipcode": "3219", "ZRI": "40.791763", "lat": "-73.94397", "lon": null}
{"Unnamed: 0": "2018", "year": "10030", "zipcode": "3410", "ZRI": "40.818267", "lat": "-73.942856", "lon": null}
{"Unnamed: 0": "2018", "year": "10031", "zipcode": "3604", "ZRI": "40.825288", "lat": "-73.950045", "lon": null}
{"Unnamed: 0": "2018", "year": "10032", "zipcode": "3028", "ZRI": "40.838792", "lat": "-73.94283", "lon": null}
{"Unnamed: 0": "2018", "year": "10033", "zipcode": "2882", "ZRI": "40.850482", "lat": "-73.934051", "lon": null}
{"Unnamed: 0": "2018", "year": "10034", "zipcode": "2748", "ZRI": "40.867076", "lat": "-73.924312", "lon": null}
{"Unnamed: 0": "2018", "year": "10035", "zipcode": "3051", "ZRI": "40.795458", "lat": "-73.92957", "lon": null}
{"Unnamed: 0": "2018", "year": "10036", "zipcode": "3809", "ZRI": "40.759254", "lat": "-73.989827", "lon": null}
{"Unnamed: 0": "2018", "year": "10038", "zipcode": "4158", "ZRI": "40.709341", "lat": "-74.00254", "lon": null}
{"Unnamed: 0": "2018", "year": "10039", "zipcode": "2854", "ZRI": "40.830869", "lat": "-73.936216", "lon": null}
{"Unnamed: 0": "2018", "year": "10040", "zipcode": "2609", "ZRI": "40.858314", "lat": "-73.930494", "lon": null}
{"Unnamed: 0": "2018", "year": "10128", "zipcode": "3530", "ZRI": "40.781428", "lat": "-73.95001", "lon": null}
{"Unnamed: 0": "2018", "year": "10301", "zipcode": "2244", "ZRI": "40.627505", "lat": "-74.094377", "lon": null}
{"Unnamed: 0": "2018", "year": "10302", "zipcode": "2233", "ZRI": "40.630716", "lat": "-74.137729", "lon": null}
{"Unnamed: 0": "2018", "year": "10303", "zipcode": "2203", "ZRI": "40.629885", "lat": "-74.17413", "lon": null}
{"Unnamed: 0": "2018", "year": "10304", "zipcode": "2249", "ZRI": "40.605965", "lat": "-74.093535", "lon": null}
{"Unnamed: 0": "2018", "year": "10305", "zipcode": "2293", "ZRI": "40.596549", "lat": "-74.075779", "lon": null}
{"Unnamed: 0": "2018", "year": "10306", "zipcode": "2254", "ZRI": "40.571768", "lat": "-74.12595", "lon": null}
{"Unnamed: 0": "2018", "year": "10307", "zipcode": "2250", "ZRI": "40.508839", "lat": "-74.240575", "lon": null}
{"Unnamed: 0": "2018", "year": "10308", "zipcode": "2252", "ZRI": "40.551884", "lat": "-74.147646", "lon": null}
{"Unnamed: 0": "2018", "year": "10309", "zipcode": "2254", "ZRI": "40.531346", "lat": "-74.219857", "lon": null}
{"Unnamed: 0": "2018", "year": "10310", "zipcode": "2237", "ZRI": "40.63265", "lat": "-74.116148", "lon": null}
{"Unnamed: 0": "2018", "year": "10312", "zipcode": "2241", "ZRI": "40.544473", "lat": "-74.182367", "lon": null}
{"Unnamed: 0": "2018", "year": "10314", "zipcode": "2259", "ZRI": "40.599263", "lat": "-74.165748", "lon": null}
{"Unnamed: 0": "2018", "year": "10451", "zipcode": "1945", "ZRI": "40.820454", "lat": "-73.925066", "lon": null}
{"Unnamed: 0": "2018", "year": "10456", "zipcode": "1974", "ZRI": "40.829886", "lat": "-73.908121", "lon": null}
{"Unnamed: 0": "2018", "year": "10457", "zipcode": "1905", "ZRI": "40.847162", "lat": "-73.898663", "lon": null}
{"Unnamed: 0": "2018", "year": "10459", "zipcode": "1927", "ZRI": "40.825856", "lat": "-73.892941", "lon": null}
{"Unnamed: 0": "2018", "year": "10461", "zipcode": "1849", "ZRI": "40.847394", "lat": "-73.840583", "lon": null}
{"Unnamed: 0": "2018", "year": "10462", "zipcode": "1846", "ZRI": "40.843267", "lat": "-73.860417", "lon": null}
{"Unnamed: 0": "2018", "year": "10463", "zipcode": "2130", "ZRI": "40.880678", "lat": "-73.90654", "lon": null}
{"Unnamed: 0": "2018", "year": "10464", "zipcode": "2060", "ZRI": "40.869594", "lat": "-73.795848", "lon": null}
{"Unnamed: 0": "2018", "year": "10465", "zipcode": "1909", "ZRI": "40.824018", "lat": "-73.823469", "lon": null}
{"Unnamed: 0": "2018", "year": "10466", "zipcode": "1977", "ZRI": "40.890964", "lat": "-73.846239", "lon": null}
{"Unnamed: 0": "2018", "year": "10467", "zipcode": "1836", "ZRI": "40.869953", "lat": "-73.865765", "lon": null}
{"Unnamed: 0": "2018", "year": "10469", "zipcode": "1845", "ZRI": "40.86861", "lat": "-73.848137", "lon": null}
{"Unnamed: 0": "2018", "year": "10470", "zipcode": "1899", "ZRI": "40.889526", "lat": "-73.872586", "lon": null}
{"Unnamed: 0": "2018", "year": "10473", "zipcode": "1905", "ZRI": "40.81869", "lat": "-73.858474", "lon": null}
{"Unnamed: 0": "2018", "year": "11004", "zipcode": "2668", "ZRI": "40.746205", "lat": "-73.711482", "lon": null}
{"Unnamed: 0": "2018", "year": "11101", "zipcode": "2442", "ZRI": "40.74756", "lat": "-73.938942", "lon": null}
{"Unnamed: 0": "2018", "year": "11102", "zipcode": "2381", "ZRI": "40.772884", "lat": "-73.926295", "lon": null}
{"Unnamed: 0": "2018", "year": "11103", "zipcode": "2375", "ZRI": "40.762576", "lat": "-73.913458", "lon": null}
{"Unnamed: 0": "2018", "year": "11104", "zipcode": "2454", "ZRI": "40.744647", "lat": "-73.920203", "lon": null}
{"Unnamed: 0": "2018", "year": "11105", "zipcode": "2357", "ZRI": "40.778971", "lat": "-73.90625", "lon": null}
{"Unnamed: 0": "2018", "year": "11106", "zipcode": "2375", "ZRI": "40.762211", "lat": "-73.931528", "lon": null}
{"Unnamed: 0": "2018", "year": "11201", "zipcode": "3191", "ZRI": "40.6937", "lat": "-73.989859", "lon": null}
{"Unnamed: 0": "2018", "year": "11203", "zipcode": "2290", "ZRI": "40.64959", "lat": "-73.934374", "lon": null}
{"Unnamed: 0": "2018", "year": "11204", "zipcode": "2397", "ZRI": "40.618777", "lat": "-73.984831", "lon": null}
{"Unnamed: 0": "2018", "year": "11205", "zipcode": "2816", "ZRI": "40.694662", "lat": "-73.966241", "lon": null}
{"Unnamed: 0": "2018", "year": "11206", "zipcode": "2596", "ZRI": "40.701954", "lat": "-73.942358", "lon": null}
{"Unnamed: 0": "2018", "year": "11207", "zipcode": "2230", "ZRI": "40.670757", "lat": "-73.894209", "lon": null}
{"Unnamed: 0": "2018", "year": "11208", "zipcode": "2204", "ZRI": "40.668564", "lat": "-73.87099", "lon": null}
{"Unnamed: 0": "2018", "year": "11209", "zipcode": "2581", "ZRI": "40.621993", "lat": "-74.030134", "lon": null}
{"Unnamed: 0": "2018", "year": "11210", "zipcode": "2449", "ZRI": "40.628144", "lat": "-73.946323", "lon": null}
{"Unnamed: 0": "2018", "year": "11211", "zipcode": "2866", "ZRI": "40.712597", "lat": "-73.953098", "lon": null}
{"Unnamed: 0": "2018", "year": "11212", "zipcode": "2256", "ZRI": "40.662932", "lat": "-73.913019", "lon": null}
{"Unnamed: 0": "2018", "year": "11213", "zipcode": "2489", "ZRI": "40.671079", "lat": "-73.936342", "lon": null}
{"Unnamed: 0": "2018", "year": "11214", "zipcode": "2342", "ZRI": "40.599148", "lat": "-73.99609", "lon": null}
{"Unnamed: 0": "2018", "year": "11215", "zipcode": "2941", "ZRI": "40.662688", "lat": "-73.98674", "lon": null}
{"Unnamed: 0": "2018", "year": "11216", "zipcode": "2536", "ZRI": "40.680769", "lat": "-73.949313", "lon": null}
{"Unnamed: 0": "2018", "year": "11217", "zipcode": "3024", "ZRI": "40.682306", "lat": "-73.978099", "lon": null}
{"Unnamed: 0": "2018", "year": "11218", "zipcode": "2615", "ZRI": "40.643477", "lat": "-73.976042", "lon": null}
{"Unnamed: 0": "2018", "year": "11219", "zipcode": "2448", "ZRI": "40.632667", "lat": "-73.996669", "lon": null}
{"Unnamed: 0": "2018", "year": "11220", "zipcode": "2529", "ZRI": "40.641087", "lat": "-74.016552", "lon": null}
{"Unnamed: 0": "2018", "year": "11221", "zipcode": "2528", "ZRI": "40.69134", "lat": "-73.927879", "lon": null}
{"Unnamed: 0": "2018", "year": "11222", "zipcode": "2816", "ZRI": "40.72779", "lat": "-73.947605", "lon": null}
{"Unnamed: 0": "2018", "year": "11223", "zipcode": "2428", "ZRI": "40.597143", "lat": "-73.973426", "lon": null}
{"Unnamed: 0": "2018", "year": "11224", "zipcode": "2397", "ZRI": "40.577372", "lat": "-73.988706", "lon": null}
{"Unnamed: 0": "2018", "year": "11225", "zipcode": "2644", "ZRI": "40.663046", "lat": "-73.954219", "lon": null}
{"Unnamed: 0": "2018", "year": "11226", "zipcode": "2482", "ZRI": "40.646448", "lat": "-73.956649", "lon": null}
{"Unnamed: 0": "2018", "year": "11228", "zipcode": "2476", "ZRI": "40.616698", "lat": "-74.013066", "lon": null}
{"Unnamed: 0": "2018", "year": "11229", "zipcode": "2399", "ZRI": "40.601293", "lat": "-73.944493", "lon": null}
{"Unnamed: 0": "2018", "year": "11230", "zipcode": "2519", "ZRI": "40.622164", "lat": "-73.96511", "lon": null}
{"Unnamed: 0": "2018", "year": "11231", "zipcode": "3002", "ZRI": "40.677916", "lat": "-74.005154", "lon": null}
{"Unnamed: 0": "2018", "year": "11232", "zipcode": "2535", "ZRI": "40.657708", "lat": "-74.004377", "lon": null}
{"Unnamed: 0": "2018", "year": "11233", "zipcode": "2364", "ZRI": "40.678302", "lat": "-73.919936", "lon": null}
{"Unnamed: 0": "2018", "year": "11234", "zipcode": "2283", "ZRI": "40.606436", "lat": "-73.909725", "lon": null}
{"Unnamed: 0": "2018", "year": "11235", "zipcode": "2410", "ZRI": "40.583949", "lat": "-73.949096", "lon": null}
{"Unnamed: 0": "2018", "year": "11236", "zipcode": "2245", "ZRI": "40.639413", "lat": "-73.900664", "lon": null}
{"Unnamed: 0": "2018", "year": "11237", "zipcode": "2515", "ZRI": "40.70416", "lat": "-73.921139", "lon": null}
{"Unnamed: 0": "2018", "year": "11238", "zipcode": "2791", "ZRI": "40.679169", "lat": "-73.9638", "lon": null}
{"Unnamed: 0": "2018", "year": "11354", "zipcode": "2510", "ZRI": "40.768213", "lat": "-73.827392", "lon": null}
{"Unnamed: 0": "2018", "year": "11355", "zipcode": "2525", "ZRI": "40.751463", "lat": "-73.820996", "lon": null}
{"Unnamed: 0": "2018", "year": "11356", "zipcode": "2308", "ZRI": "40.784923", "lat": "-73.841548", "lon": null}
{"Unnamed: 0": "2018", "year": "11357", "zipcode": "2533", "ZRI": "40.785129", "lat": "-73.810037", "lon": null}
{"Unnamed: 0": "2018", "year": "11358", "zipcode": "2562", "ZRI": "40.760473", "lat": "-73.796373", "lon": null}
{"Unnamed: 0": "2018", "year": "11360", "zipcode": "2766", "ZRI": "40.780348", "lat": "-73.781548", "lon": null}
{"Unnamed: 0": "2018", "year": "11361", "zipcode": "2615", "ZRI": "40.764191", "lat": "-73.772775", "lon": null}
{"Unnamed: 0": "2018", "year": "11362", "zipcode": "2828", "ZRI": "40.756632", "lat": "-73.735333", "lon": null}
{"Unnamed: 0": "2018", "year": "11363", "zipcode": "2883", "ZRI": "40.772348", "lat": "-73.746292", "lon": null}
{"Unnamed: 0": "2018", "year": "11364", "zipcode": "2732", "ZRI": "40.745294", "lat": "-73.760583", "lon": null}
{"Unnamed: 0": "2018", "year": "11365", "zipcode": "2656", "ZRI": "40.739634", "lat": "-73.79449", "lon": null}
{"Unnamed: 0": "2018", "year": "11366", "zipcode": "2854", "ZRI": "40.728157", "lat": "-73.785017", "lon": null}
{"Unnamed: 0": "2018", "year": "11367", "zipcode": "2536", "ZRI": "40.730145", "lat": "-73.82703", "lon": null}
{"Unnamed: 0": "2018", "year": "11368", "zipcode": "2343", "ZRI": "40.749737", "lat": "-73.853045", "lon": null}
{"Unnamed: 0": "2018", "year": "11369", "zipcode": "2309", "ZRI": "40.763445", "lat": "-73.872334", "lon": null}
{"Unnamed: 0": "2018", "year": "11370", "zipcode": "2322", "ZRI": "40.765393", "lat": "-73.893191", "lon": null}
{"Unnamed: 0": "2018", "year": "11372", "zipcode": "2383", "ZRI": "40.751675", "lat": "-73.883666", "lon": null}
{"Unnamed: 0": "2018", "year": "11373", "zipcode": "2407", "ZRI": "40.738843", "lat": "-73.878539", "lon": null}
{"Unnamed: 0": "2018", "year": "11374", "zipcode": "2525", "ZRI": "40.726467", "lat": "-73.861515", "lon": null}
{"Unnamed: 0": "2018", "year": "11375", "zipcode": "2849", "ZRI": "40.720963", "lat": "-73.84614", "lon": null}
{"Unnamed: 0": "2018", "year": "11377", "zipcode": "2370", "ZRI": "40.74482", "lat": "-73.905161", "lon": null}
{"Unnamed: 0": "2018", "year": "11378", "zipcode": "2357", "ZRI": "40.724744", "lat": "-73.909639", "lon": null}
{"Unnamed: 0": "2018", "year": "11379", "zipcode": "2402", "ZRI": "40.716753", "lat": "-73.879598", "lon": null}
{"Unnamed: 0": "2018", "year": "11385", "zipcode": "2304", "ZRI": "40.700647", "lat": "-73.889423", "lon": null}
{"Unnamed: 0": "2018", "year": "11411", "zipcode": "2325", "ZRI": "40.694025", "lat": "-73.736223", "lon": null}
{"Unnamed: 0": "2018", "year": "11412", "zipcode": "2249", "ZRI": "40.698096", "lat": "-73.75899", "lon": null}
{"Unnamed: 0": "2018", "year": "11413", "zipcode": "2244", "ZRI": "40.67117", "lat": "-73.752063", "lon": null}
{"Unnamed: 0": "2018", "year": "11414", "zipcode": "2246", "ZRI": "40.657604", "lat": "-73.844804", "lon": null}
{"Unnamed: 0": "2018", "year": "11415", "zipcode": "2356", "ZRI": "40.707896", "lat": "-73.828297", "lon": null}
{"Unnamed: 0": "2018", "year": "11416", "zipcode": "2251", "ZRI": "40.684625", "lat": "-73.849582", "lon": null}
{"Unnamed: 0": "2018", "year": "11417", "zipcode": "2237", "ZRI": "40.676434", "lat": "-73.844467", "lon": null}
{"Unnamed: 0": "2018", "year": "11418", "zipcode": "2263", "ZRI": "40.700203", "lat": "-73.836012", "lon": null}
{"Unnamed: 0": "2018", "year": "11419", "zipcode": "2228", "ZRI": "40.688638", "lat": "-73.822942", "lon": null}
{"Unnamed: 0": "2018", "year": "11420", "zipcode": "2220", "ZRI": "40.673563", "lat": "-73.817829", "lon": null}
{"Unnamed: 0": "2018", "year": "11421", "zipcode": "2252", "ZRI": "40.694062", "lat": "-73.858626", "lon": null}
{"Unnamed: 0": "2018", "year": "11422", "zipcode": "2254", "ZRI": "40.660065", "lat": "-73.736012", "lon": null}
{"Unnamed: 0": "2018", "year": "11423", "zipcode": "2317", "ZRI": "40.715608", "lat": "-73.768493", "lon": null}
{"Unnamed: 0": "2018", "year": "11426", "zipcode": "2438", "ZRI": "40.736462", "lat": "-73.722359", "lon": null}
{"Unnamed: 0": "2018", "year": "11427", "zipcode": "2421", "ZRI": "40.730918", "lat": "-73.745621", "lon": null}
{"Unnamed: 0": "2018", "year": "11428", "zipcode": "2284", "ZRI": "40.721008", "lat": "-73.742257", "lon": null}
{"Unnamed: 0": "2018", "year": "11429", "zipcode": "2254", "ZRI": "40.709781", "lat": "-73.738733", "lon": null}
{"Unnamed: 0": "2018", "year": "11432", "zipcode": "2614", "ZRI": "40.715359", "lat": "-73.793072", "lon": null}
{"Unnamed: 0": "2018", "year": "11433", "zipcode": "2203", "ZRI": "40.698151", "lat": "-73.786912", "lon": null}
{"Unnamed: 0": "2018", "year": "11434", "zipcode": "2202", "ZRI": "40.676808", "lat": "-73.776425", "lon": null}
{"Unnamed: 0": "2018", "year": "11435", "zipcode": "2244", "ZRI": "40.701225", "lat": "-73.809635", "lon": null}
{"Unnamed: 0": "2018", "year": "11436", "zipcode": "2157", "ZRI": "40.675818", "lat": "-73.796661", "lon": null}
{"Unnamed: 0": "2018", "year": "11691", "zipcode": "2177", "ZRI": "40.601261", "lat": "-73.761646", "lon": null}
{"Unnamed: 0": "2018", "year": "11692", "zipcode": "2086", "ZRI": "40.594154", "lat": "-73.791986", "lon": null}
{"Unnamed: 0": "2018", "year": "11693", "zipcode": "2092", "ZRI": "40.590916", "lat": "-73.809715", "lon": null}
{"Unnamed: 0": "2018", "year": "11694", "zipcode": "2399", "ZRI": "40.57827", "lat": "-73.844762", "lon": null}
{"Unnamed: 0": "2017", "year": "94102", "zipcode": "4796", "ZRI": "37.779584", "lat": "-122.419339", "lon": null}
{"Unnamed: 0": "2017", "year": "94103", "zipcode": "4529", "ZRI": "37.773152", "lat": "-122.411164", "lon": null}
{"Unnamed: 0": "2017", "year": "94105", "zipcode": "4684", "ZRI": "37.789649", "lat": "-122.393067", "lon": null}
{"Unnamed: 0": "2017", "year": "94107", "zipcode": "5073", "ZRI": "37.75826", "lat": "-122.406044", "lon": null}
{"Unnamed: 0": "2017", "year": "94109", "zipcode": "6017", "ZRI": "37.795388", "lat": "-122.422444", "lon": null}
{"Unnamed: 0": "2017", "year": "94110", "zipcode": "4723", "ZRI": "37.750021", "lat": "-122.415201", "lon": null}
{"Unnamed: 0": "2017", "year": "94112", "zipcode": "3932", "ZRI": "37.720367", "lat": "-122.442936", "lon": null}
{"Unnamed: 0": "2017", "year": "94114", "zipcode": "5944", "ZRI": "37.758059", "lat": "-122.435408", "lon": null}
{"Unnamed: 0": "2017", "year": "94115", "zipcode": "8150", "ZRI": "37.785969", "lat": "-122.437253", "lon": null}
{"Unnamed: 0": "2017", "year": "94116", "zipcode": "4133", "ZRI": "37.745399", "lat": "-122.486065", "lon": null}
{"Unnamed: 0": "2017", "year": "94117", "zipcode": "6411", "ZRI": "37.769436", "lat": "-122.447662", "lon": null}
{"Unnamed: 0": "2017", "year": "94118", "zipcode": "6284", "ZRI": "37.780093", "lat": "-122.462605", "lon": null}
{"Unnamed: 0": "2017", "year": "94121", "zipcode": "4570", "ZRI": "37.776769", "lat": "-122.494707", "lon": null}
{"Unnamed: 0": "2017", "year": "94122", "zipcode": "4240", "ZRI": "37.758799", "lat": "-122.485127", "lon": null}
{"Unnamed: 0": "2017", "year": "94123", "zipcode": "12327", "ZRI": "37.800934", "lat": "-122.438366", "lon": null}
{"Unnamed: 0": "2017", "year": "94124", "zipcode": "3877", "ZRI": "37.728895", "lat": "-122.382779", "lon": null}
{"Unnamed: 0": "2017", "year": "94127", "zipcode": "4859", "ZRI": "37.736027", "lat": "-122.457207", "lon": null}
{"Unnamed: 0": "2017", "year": "94131", "zipcode": "4843", "ZRI": "37.745917", "lat": "-122.441473", "lon": null}
{"Unnamed: 0": "2017", "year": "94132", "zipcode": "4273", "ZRI": "37.722214", "lat": "-122.484083", "lon": null}
{"Unnamed: 0": "2017", "year": "94133", "zipcode": "5925", "ZRI": "37.804531", "lat": "-122.410852", "lon": null}
{"Unnamed: 0": "2017", "year": "94134", "zipcode": "3855", "ZRI": "37.721046", "lat": "-122.413555", "lon": null}
{"Unnamed: 0": "2018", "year": "94102", "zipcode": "4776", "ZRI": "37.779584", "lat": "-122.419339", "lon": null}
{"Unnamed: 0": "2018", "year": "94103", "zipcode": "4519", "ZRI": "37.773152", "lat": "-122.411164", "lon": null}
{"Unnamed: 0": "2018", "year": "94105", "zipcode": "4522", "ZRI": "37.789649", "lat": "-122.393067", "lon": null}
{"Unnamed: 0": "2018", "year": "94107", "zipcode": "4849", "ZRI": "37.75826", "lat": "-122.406044", "lon": null}
{"Unnamed: 0": "2018", "year": "94109", "zipcode": "6003", "ZRI": "37.795388", "lat": "-122.422444", "lon": null}
{"Unnamed: 0": "2018", "year": "94110", "zipcode": "4674", "ZRI": "37.750021", "lat": "-122.415201", "lon": null}
{"Unnamed: 0": "2018", "year": "94112", "zipcode": "3861", "ZRI": "37.720367", "lat": "-122.442936", "lon": null}
{"Unnamed: 0": "2018", "year": "94114", "zipcode": "5770", "ZRI": "37.758059", "lat": "-122.435408", "lon": null}
{"Unnamed: 0": "2018", "year": "94115", "zipcode": "8057", "ZRI": "37.785969", "lat": "-122.437253", "lon": null}
{"Unnamed: 0": "2018", "year": "94116", "zipcode": "4056", "ZRI": "37.745399", "lat": "-122.486065", "lon": null}
{"Unnamed: 0": "2018", "year": "94117", "zipcode": "6214", "ZRI": "37.769436", "lat": "-122.447662", "lon": null}
{"Unnamed: 0": "2018", "year": "94118", "zipcode": "6054", "ZRI": "37.780093", "lat": "-122.462605", "lon": null}
{"Unnamed: 0": "2018", "year": "94121", "zipcode": "4483", "ZRI": "37.776769", "lat": "-122.494707", "lon": null}
{"Unnamed: 0": "2018", "year": "94122", "zipcode": "4167", "ZRI": "37.758799", "lat": "-122.485127", "lon": null}
{"Unnamed: 0": "2018", "year": "94123", "zipcode": "11185", "ZRI": "37.800934", "lat": "-122.438366", "lon": null}
{"Unnamed: 0": "2018", "year": "94124", "zipcode": "3680", "ZRI": "37.728895", "lat": "-122.382779", "lon": null}
{"Unnamed: 0": "2018", "year": "94127", "zipcode": "4811", "ZRI": "37.736027", "lat": "-122.457207", "lon": null}
{"Unnamed: 0": "2018", "year": "94131", "zipcode": "4759", "ZRI": "37.745917", "lat": "-122.441473", "lon": null}
{"Unnamed: 0": "2018", "year": "94132", "zipcode": "4173", "ZRI": "37.722214", "lat": "-122.484083", "lon": null}
{"Unnamed: 0": "2018", "year": "94133", "zipcode": "5885", "ZRI": "37.804531", "lat": "-122.410852", "lon": null}
{"Unnamed: 0": "2018", "year": "94134", "zipcode": "3684", "ZRI": "37.721046", "lat": "-122.413555", "lon": null}
{"Unnamed: 0": "2011", "year": "94002", "zipcode": "3420", "ZRI": "37.514354", "lat": "-122.298901", "lon": null}
{"Unnamed: 0": "2011", "year": "94010", "zipcode": "5454", "ZRI": "37.57028", "lat": "-122.365778", "lon": null}
{"Unnamed: 0": "2011", "year": "94010", "zipcode": "5454", "ZRI": "37.57028", "lat": "-122.365778", "lon": null}
{"Unnamed: 0": "2011", "year": "94022", "zipcode": "6419", "ZRI": "37.35748", "lat": "-122.14444", "lon": null}
{"Unnamed: 0": "2011", "year": "94024", "zipcode": "5115", "ZRI": "37.352232", "lat": "-122.094398", "lon": null}
{"Unnamed: 0": "2011", "year": "94025", "zipcode": "4332", "ZRI": "37.456392", "lat": "-122.173601", "lon": null}
{"Unnamed: 0": "2011", "year": "94027", "zipcode": "11377", "ZRI": "37.453514", "lat": "-122.204756", "lon": null}
{"Unnamed: 0": "2011", "year": "94027", "zipcode": "11377", "ZRI": "37.453514", "lat": "-122.204756", "lon": null}
{"Unnamed: 0": "2011", "year": "94028", "zipcode": "6874", "ZRI": "37.37685", "lat": "-122.209761", "lon": null}
{"Unnamed: 0": "2011", "year": "94040", "zipcode": "3676", "ZRI": "37.380568", "lat": "-122.085297", "lon": null}
{"Unnamed: 0": "2011", "year": "94041", "zipcode": "3171", "ZRI": "37.38852", "lat": "-122.075726", "lon": null}
{"Unnamed: 0": "2011", "year": "94043", "zipcode": "2828", "ZRI": "37.414028", "lat": "-122.070679", "lon": null}
{"Unnamed: 0": "2011", "year": "94085", "zipcode": "2292", "ZRI": "37.388556", "lat": "-122.017732", "lon": null}
{"Unnamed: 0": "2011", "year": "94086", "zipcode": "2764", "ZRI": "37.371647", "lat": "-122.023134", "lon": null}
{"Unnamed: 0": "2011", "year": "94087", "zipcode": "3224", "ZRI": "37.351529", "lat": "-122.036959", "lon": null}
{"Unnamed: 0": "2011", "year": "94089", "zipcode": "2228", "ZRI": "37.412402", "lat": "-122.015605", "lon": null}
{"Unnamed: 0": "2011", "year": "94301", "zipcode": "6417", "ZRI": "37.444131", "lat": "-122.149917", "lon": null}
{"Unnamed: 0": "2011", "year": "94303", "zipcode": "3270", "ZRI": "37.457883", "lat": "-122.115097", "lon": null}
{"Unnamed: 0": "2011", "year": "94306", "zipcode": "4224", "ZRI": "37.415703", "lat": "-122.130771", "lon": null}
{"Unnamed: 0": "2011", "year": "94404", "zipcode": "3392", "ZRI": "37.555999", "lat": "-122.267679", "lon": null}
{"Unnamed: 0": "2011", "year": "95014", "zipcode": "3697", "ZRI": "37.306491", "lat": "-122.08064", "lon": null}
{"Unnamed: 0": "2011", "year": "95020", "zipcode": "2405", "ZRI": "37.018419", "lat": "-121.554249", "lon": null}
{"Unnamed: 0": "2011", "year": "95030", "zipcode": "5243", "ZRI": "37.2231", "lat": "-121.983869", "lon": null}
{"Unnamed: 0": "2011", "year": "95030", "zipcode": "5243", "ZRI": "37.2231", "lat": "-121.983869", "lon": null}
{"Unnamed: 0": "2011", "year": "95032", "zipcode": "3694", "ZRI": "37.217271", "lat": "-121.924385", "lon": null}
{"Unnamed: 0": "2011", "year": "95033", "zipcode": "2883", "ZRI": "37.160846", "lat": "-121.983966", "lon": null}
{"Unnamed: 0": "2011", "year": "95035", "zipcode": "2407", "ZRI": "37.443638", "lat": "-121.874953", "lon": null}
{"Unnamed: 0": "2011", "year": "95037", "zipcode": "2624", "ZRI": "37.174063", "lat": "-121.598747", "lon": null}
{"Unnamed: 0": "2011", "year": "95046", "zipcode": "2630", "ZRI": "37.099308", "lat": "-121.59924", "lon": null}
{"Unnamed: 0": "2011", "year": "95050", "zipcode": "2405", "ZRI": "37.351154", "lat": "-121.952324", "lon": null}
{"Unnamed: 0": "2011", "year": "95051", "zipcode": "2534", "ZRI": "37.348639", "lat": "-121.984373", "lon": null}
{"Unnamed: 0": "2011", "year": "95054", "zipcode": "2569", "ZRI": "37.393491", "lat": "-121.96467", "lon": null}
{"Unnamed: 0": "2011", "year": "95070", "zipcode": "5008", "ZRI": "37.260501", "lat": "-122.04617", "lon": null}
{"Unnamed: 0": "2011", "year": "95110", "zipcode": "2003", "ZRI": "37.346521", "lat": "-121.909828", "lon": null}
{"Unnamed: 0": "2011", "year": "95111", "zipcode": "2209", "ZRI": "37.283111", "lat": "-121.826245", "lon": null}
{"Unnamed: 0": "2011", "year": "95112", "zipcode": "2076", "ZRI": "37.344482", "lat": "-121.883535", "lon": null}
{"Unnamed: 0": "2011", "year": "95116", "zipcode": "2057", "ZRI": "37.350421", "lat": "-121.852585", "lon": null}
{"Unnamed: 0": "2011", "year": "95117", "zipcode": "2550", "ZRI": "37.311208", "lat": "-121.961886", "lon": null}
{"Unnamed: 0": "2011", "year": "95118", "zipcode": "2447", "ZRI": "37.255364", "lat": "-121.891912", "lon": null}
{"Unnamed: 0": "2011", "year": "95119", "zipcode": "2412", "ZRI": "37.230327", "lat": "-121.785227", "lon": null}
{"Unnamed: 0": "2011", "year": "95120", "zipcode": "3357", "ZRI": "37.186143", "lat": "-121.843532", "lon": null}
{"Unnamed: 0": "2011", "year": "95121", "zipcode": "2357", "ZRI": "37.304149", "lat": "-121.809867", "lon": null}
{"Unnamed: 0": "2011", "year": "95122", "zipcode": "2066", "ZRI": "37.328683", "lat": "-121.835268", "lon": null}
{"Unnamed: 0": "2011", "year": "95123", "zipcode": "2397", "ZRI": "37.244238", "lat": "-121.831604", "lon": null}
{"Unnamed: 0": "2011", "year": "95124", "zipcode": "2496", "ZRI": "37.25685", "lat": "-121.922737", "lon": null}
{"Unnamed: 0": "2011", "year": "95125", "zipcode": "2639", "ZRI": "37.295056", "lat": "-121.89144", "lon": null}
{"Unnamed: 0": "2011", "year": "95126", "zipcode": "2410", "ZRI": "37.326809", "lat": "-121.916753", "lon": null}
{"Unnamed: 0": "2011", "year": "95127", "zipcode": "2139", "ZRI": "37.371092", "lat": "-121.800755", "lon": null}
{"Unnamed: 0": "2011", "year": "95128", "zipcode": "2386", "ZRI": "37.315986", "lat": "-121.936315", "lon": null}
{"Unnamed: 0": "2011", "year": "95129", "zipcode": "3045", "ZRI": "37.305742", "lat": "-122.000927", "lon": null}
{"Unnamed: 0": "2011", "year": "95130", "zipcode": "2535", "ZRI": "37.277121", "lat": "-121.986133", "lon": null}
{"Unnamed: 0": "2011", "year": "95131", "zipcode": "2431", "ZRI": "37.387105", "lat": "-121.897415", "lon": null}
{"Unnamed: 0": "2011", "year": "95132", "zipcode": "2398", "ZRI": "37.424565", "lat": "-121.748597", "lon": null}
{"Unnamed: 0": "2011", "year": "95133", "zipcode": "2373", "ZRI": "37.371606", "lat": "-121.860844", "lon": null}
{"Unnamed: 0": "2011", "year": "95134", "zipcode": "2707", "ZRI": "37.428625", "lat": "-121.9434", "lon": null}
{"Unnamed: 0": "2011", "year": "95135", "zipcode": "3187", "ZRI": "37.284529", "lat": "-121.658321", "lon": null}
{"Unnamed: 0": "2011", "year": "95136", "zipcode": "2452", "ZRI": "37.269128", "lat": "-121.850992", "lon": null}
{"Unnamed: 0": "2011", "year": "95138", "zipcode": "3235", "ZRI": "37.246623", "lat": "-121.733833", "lon": null}
{"Unnamed: 0": "2011", "year": "95139", "zipcode": "2363", "ZRI": "37.224914", "lat": "-121.764075", "lon": null}
{"Unnamed: 0": "2011", "year": "95148", "zipcode": "2442", "ZRI": "37.335987", "lat": "-121.777603", "lon": null}
{"Unnamed: 0": "2014", "year": "94002", "zipcode": "4385", "ZRI": "37.514354", "lat": "-122.298901", "lon": null}
{"Unnamed: 0": "2014", "year": "94010", "zipcode": "6857", "ZRI": "37.57028", "lat": "-122.365778", "lon": null}
{"Unnamed: 0": "2014", "year": "94010", "zipcode": "6857", "ZRI": "37.57028", "lat": "-122.365778", "lon": null}
{"Unnamed: 0": "2014", "year": "94022", "zipcode": "8154", "ZRI": "37.35748", "lat": "-122.14444", "lon": null}
{"Unnamed: 0": "2014", "year": "94024", "zipcode": "6274", "ZRI": "37.352232", "lat": "-122.094398", "lon": null}
{"Unnamed: 0": "2014", "year": "94025", "zipcode": "5545", "ZRI": "37.456392", "lat": "-122.173601", "lon": null}
{"Unnamed: 0": "2014", "year": "94027", "zipcode": "14520", "ZRI": "37.453514", "lat": "-122.204756", "lon": null}
{"Unnamed: 0": "2014", "year": "94027", "zipcode": "14520", "ZRI": "37.453514", "lat": "-122.204756", "lon": null}
{"Unnamed: 0": "2014", "year": "94028", "zipcode": "9596", "ZRI": "37.37685", "lat": "-122.209761", "lon": null}
{"Unnamed: 0": "2014", "year": "94040", "zipcode": "4757", "ZRI": "37.380568", "lat": "-122.085297", "lon": null}
{"Unnamed: 0": "2014", "year": "94041", "zipcode": "4172", "ZRI": "37.38852", "lat": "-122.075726", "lon": null}
{"Unnamed: 0": "2014", "year": "94043", "zipcode": "3884", "ZRI": "37.414028", "lat": "-122.070679", "lon": null}
{"Unnamed: 0": "2014", "year": "94085", "zipcode": "3123", "ZRI": "37.388556", "lat": "-122.017732", "lon": null}
{"Unnamed: 0": "2014", "year": "94086", "zipcode": "3490", "ZRI": "37.371647", "lat": "-122.023134", "lon": null}
{"Unnamed: 0": "2014", "year": "94087", "zipcode": "4017", "ZRI": "37.351529", "lat": "-122.036959", "lon": null}
{"Unnamed: 0": "2014", "year": "94089", "zipcode": "2934", "ZRI": "37.412402", "lat": "-122.015605", "lon": null}
{"Unnamed: 0": "2014", "year": "94301", "zipcode": "8371", "ZRI": "37.444131", "lat": "-122.149917", "lon": null}
{"Unnamed: 0": "2014", "year": "94303", "zipcode": "4436", "ZRI": "37.457883", "lat": "-122.115097", "lon": null}
{"Unnamed: 0": "2014", "year": "94306", "zipcode": "5679", "ZRI": "37.415703", "lat": "-122.130771", "lon": null}
{"Unnamed: 0": "2014", "year": "94404", "zipcode": "4352", "ZRI": "37.555999", "lat": "-122.267679", "lon": null}
{"Unnamed: 0": "2014", "year": "95014", "zipcode": "4575", "ZRI": "37.306491", "lat": "-122.08064", "lon": null}
{"Unnamed: 0": "2014", "year": "95020", "zipcode": "2821", "ZRI": "37.018419", "lat": "-121.554249", "lon": null}
{"Unnamed: 0": "2014", "year": "95030", "zipcode": "6113", "ZRI": "37.2231", "lat": "-121.983869", "lon": null}
{"Unnamed: 0": "2014", "year": "95030", "zipcode": "6113", "ZRI": "37.2231", "lat": "-121.983869", "lon": null}
{"Unnamed: 0": "2014", "year": "95032", "zipcode": "4503", "ZRI": "37.217271", "lat": "-121.924385", "lon": null}
{"Unnamed: 0": "2014", "year": "95033", "zipcode": "3384", "ZRI": "37.160846", "lat": "-121.983966", "lon": null}
{"Unnamed: 0": "2014", "year": "95035", "zipcode": "2985", "ZRI": "37.443638", "lat": "-121.874953", "lon": null}
{"Unnamed: 0": "2014", "year": "95037", "zipcode": "3190", "ZRI": "37.174063", "lat": "-121.598747", "lon": null}
{"Unnamed: 0": "2014", "year": "95046", "zipcode": "3129", "ZRI": "37.099308", "lat": "-121.59924"